$$SOE
2460154.500000000, A.D. 2023-Jul-29 00:00:00.0000, -3.223702476657858E+08, -4.209669665107388E+08, 3.403711293428989E+07,
2460161.500000000, A.D. 2023-Aug-05 00:00:00.0000, -3.134075551200607E+08, -4.255428427164014E+08, 3.374989762646267E+07,
2460168.500000000, A.D. 2023-Aug-12 00:00:00.0000, -3.043424896699530E+08, -4.299796378537390E+08, 3.345165244797856E+07,
2460175.500000000, A.D. 2023-Aug-19 00:00:00.0000, -2.951770380242439E+08, -4.342745215709956E+08, 3.314236746596371E+07,
2460182.500000000, A.D. 2023-Aug-26 00:00:00.0000, -2.859132736617923E+08, -4.384246758152924E+08, 3.282203779620738E+07,
2460189.500000000, A.D. 2023-Sep-02 00:00:00.0000, -2.765533580501803E+08, -4.424272976814365E+08, 3.249066378376636E+07,
2460196.500000000, A.D. 2023-Sep-09 00:00:00.0000, -2.670995417660539E+08, -4.462796024879949E+08, 3.214825117239505E+07,
2460203.500000000, A.D. 2023-Sep-16 00:00:00.0000, -2.575541653409396E+08, -4.499788271377290E+08, 3.179481124224097E+07,
2460210.500000000, A.D. 2023-Sep-23 00:00:00.0000, -2.479196594081303E+08, -4.535222334741428E+08, 3.143036090065378E+07,
2460217.500000000, A.D. 2023-Sep-30 00:00:00.0000, -2.381985444819783E+08, -4.569071104412043E+08, 3.105492285414329E+07,
2460224.500000000, A.D. 2023-Oct-07 00:00:00.0000, -2.283934327146044E+08, -4.601307755860029E+08, 3.066852603252140E+07,
2460231.500000000, A.D. 2023-Oct-14 00:00:00.0000, -2.185070305810228E+08, -4.631905792143832E+08, 3.027120589857215E+07,
2460238.500000000, A.D. 2023-Oct-21 00:00:00.0000, -2.085421392555208E+08, -4.660839095939775E+08, 2.986300447771949E+07,
2460245.500000000, A.D. 2023-Oct-28 00:00:00.0000, -1.985016540955327E+08, -4.688081969406345E+08, 2.944397042275938E+07,
2460252.500000000, A.D. 2023-Nov-04 00:00:00.0000, -1.883885644746884E+08, -4.713609169533850E+08, 2.901415916499108E+07,
2460259.500000000, A.D. 2023-Nov-11 00:00:00.0000, -1.782059537788674E+08, -4.737395944916916E+08, 2.857363308598191E+07,
2460266.500000000, A.D. 2023-Nov-18 00:00:00.0000, -1.679569993370517E+08, -4.759418074525780E+08, 2.812246168405193E+07,
2460273.500000000, A.D. 2023-Nov-25 00:00:00.0000, -1.576449722055311E+08, -4.779651908179610E+08, 2.766072173007610E+07,
2460280.500000000, A.D. 2023-Dec-02 00:00:00.0000, -1.472732367690283E+08, -4.798074408758560E+08, 2.718849740853587E+07,
2460287.500000000, A.D. 2023-Dec-09 00:00:00.0000, -1.368452500731687E+08, -4.814663196661844E+08, 2.670588043126827E+07,
2460294.500000000, A.D. 2023-Dec-16 00:00:00.0000, -1.263645605934737E+08, -4.829396596296110E+08, 2.621297009789592E+07,
2460301.500000000, A.D. 2023-Dec-23 00:00:00.0000, -1.158348060855832E+08, -4.842253677620648E+08, 2.570987332638466E+07,
2460308.500000000, A.D. 2023-Dec-30 00:00:00.0000, -1.052597118504913E+08, -4.853214282146403E+08, 2.519670486150578E+07,
2460315.500000000, A.D. 2024-Jan-06 00:00:00.0000, -9.464309118086404E+07, -4.862259056874273E+08, 2.467358762978703E+07,
2460322.500000000, A.D. 2024-Jan-13 00:00:00.0000, -8.398884480956757E+07, -4.869369514121443E+08, 2.414065280118549E+07,
2460329.500000000, A.D. 2024-Jan-20 00:00:00.0000, -7.330095813198735E+07, -4.874528086273141E+08, 2.359803969641519E+07,
2460336.500000000, A.D. 2024-Jan-27 00:00:00.0000, -6.258349822730624E+07, -4.877718168811125E+08, 2.304589577845395E+07,
2460343.500000000, A.D. 2024-Feb-03 00:00:00.0000, -5.184061110445722E+07, -4.878924160966092E+08, 2.248437668911350E+07,
2460350.500000000, A.D. 2024-Feb-10 00:00:00.0000, -4.107651889369769E+07, -4.878131506756143E+08, 2.191364628054252E+07,
2460357.500000000, A.D. 2024-Feb-17 00:00:00.0000, -3.029551684431361E+07, -4.875326736172360E+08, 2.133387662866694E+07,
2460364.500000000, A.D. 2024-Feb-24 00:00:00.0000, -1.950197009234345E+07, -4.870497506194939E+08, 2.074524802553737E+07,
2460371.500000000, A.D. 2024-Mar-02 00:00:00.0000, -8.700310169259587E+06, -4.863632641793529E+08, 2.014794894434771E+07,
2460378.500000000, A.D. 2024-Mar-09 00:00:00.0000, 2.104968886259419E+06, -4.854722177372870E+08, 1.954217595850900E+07,
2460385.500000000, A.D. 2024-Mar-16 00:00:00.0000, 1.290931520669603E+07, -4.843757396532168E+08, 1.892813359409469E+07,
2460392.500000000, A.D. 2024-Mar-23 00:00:00.0000, 2.370812445680741E+07, -4.830730858895721E+08, 1.830603421543187E+07,
2460399.500000000, A.D. 2024-Mar-30 00:00:00.0000, 3.449674363056199E+07, -4.815636414127647E+08, 1.767609814692748E+07,
2460406.500000000, A.D. 2024-Apr-06 00:00:00.0000, 4.527047353285203E+07, -4.798469236644171E+08, 1.703855373212111E+07,
2460413.500000000, A.D. 2024-Apr-13 00:00:00.0000, 5.602457348908653E+07, -4.779225872502748E+08, 1.639363707239273E+07,
2460420.500000000, A.D. 2024-Apr-20 00:00:00.0000, 6.675426732088120E+07, -4.757904271552391E+08, 1.574159175139165E+07,
2460427.500000000, A.D. 2024-Apr-27 00:00:00.0000, 7.745474905971695E+07, -4.734503810307713E+08, 1.508266863850212E+07,
2460434.500000000, A.D. 2024-May-04 00:00:00.0000, 8.812118847428006E+07, -4.709025312429351E+08, 1.441712570589584E+07,
2460441.500000000, A.D. 2024-May-11 00:00:00.0000, 9.874873663650744E+07, -4.681471067682372E+08, 1.374522782918224E+07,
2460448.500000000, A.D. 2024-May-18 00:00:00.0000, 1.093325315938712E+08, -4.651844849016210E+08, 1.306724656619874E+07,
2460455.500000000, A.D. 2024-May-25 00:00:00.0000, 1.198677041572337E+08, -4.620151927705228E+08, 1.238345991149354E+07,
2460462.500000000, A.D. 2024-Jun-01 00:00:00.0000, 1.303493838479531E+08, -4.586399087005119E+08, 1.169415201688731E+07,
2460469.500000000, A.D. 2024-Jun-08 00:00:00.0000, 1.407727052334865E+08, -4.550594634453218E+08, 1.099961285443157E+07,
2460476.500000000, A.D. 2024-Jun-15 00:00:00.0000, 1.511328150326310E+08, -4.512748407277929E+08, 1.030013783064637E+07,
2460483.500000000, A.D. 2024-Jun-22 00:00:00.0000, 1.614248789653590E+08, -4.472871759094065E+08, 9.596027541335732E+06,
2460490.500000000, A.D. 2024-Jun-29 00:00:00.0000, 1.716440862046174E+08, -4.430977546023148E+08, 8.887587713776410E+06,
2460497.500000000, A.D. 2024-Jul-06 00:00:00.0000, 1.817856540540208E+08, -4.387080136886649E+08, 8.175128892662466E+06,
2460504.500000000, A.D. 2024-Jul-13 00:00:00.0000, 1.918448347799097E+08, -4.341195419193326E+08, 7.458965922889888E+06,
2460511.500000000, A.D. 2024-Jul-20 00:00:00.0000, 2.018169225907890E+08, -4.293340789418733E+08, 6.739417506400466E+06,
2460518.500000000, A.D. 2024-Jul-27 00:00:00.0000, 2.116972600864081E+08, -4.243535137168987E+08, 6.016805816037029E+06,
2460525.500000000, A.D. 2024-Aug-03 00:00:00.0000, 2.214812444278035E+08, -4.191798826990018E+08, 5.291456111907154E+06,
2460532.500000000, A.D. 2024-Aug-10 00:00:00.0000, 2.311643333727019E+08, -4.138153677895979E+08, 4.563696345847100E+06,
2460539.500000000, A.D. 2024-Aug-17 00:00:00.0000, 2.407420512024342E+08, -4.082622940445923E+08, 3.833856752570689E+06,
2460546.500000000, A.D. 2024-Aug-24 00:00:00.0000, 2.502099945473282E+08, -4.025231271652877E+08, 3.102269424235851E+06,
2460553.500000000, A.D. 2024-Aug-31 00:00:00.0000, 2.595638382060792E+08, -3.966004708417414E+08, 2.369267853913665E+06,
2460560.500000000, A.D. 2024-Sep-07 00:00:00.0000, 2.687993413055145E+08, -3.904970638319846E+08, 1.635186425970048E+06,
2460567.500000000, A.D. 2024-Sep-14 00:00:00.0000, 2.779123538676740E+08, -3.842157757934016E+08, 9.003599282606840E+05,
2460574.500000000, A.D. 2024-Sep-21 00:00:00.0000, 2.868988217371274E+08, -3.777596014674397E+08, 1.651233072794974E+05,
2460581.500000000, A.D. 2024-Sep-28 00:00:00.0000, 2.957547893629759E+08, -3.711316564590278E+08, -5.701885515862405E+05,
2460588.500000000, A.D. 2024-Oct-05 00:00:00.0000, 3.044764040889722E+08, -3.643351746231106E+08, -1.305241353958681E+06,
2460595.500000000, A.D. 2024-Oct-12 00:00:00.0000, 3.130599215770589E+08, -3.573735040945504E+08, -2.039701958555147E+06,
2460602.500000000, A.D. 2024-Oct-19 00:00:00.0000, 3.215017106002184E+08, -3.502501022502406E+08, -2.773238831572250E+06,
2460609.500000000, A.D. 2024-Oct-26 00:00:00.0000, 3.297982571597316E+08, -3.429685304233197E+08, -3.505522454516992E+06,
2460616.500000000, A.D. 2024-Nov-02 00:00:00.0000, 3.379461681727078E+08, -3.355324485363974E+08, -4.236225719908610E+06,
2460623.500000000, A.D. 2024-Nov-09 00:00:00.0000, 3.459421748165136E+08, -3.279456096515339E+08, -4.965024320778176E+06,
2460630.500000000, A.D. 2024-Nov-16 00:00:00.0000, 3.537831355480479E+08, -3.202118544551482E+08, -5.691597135145381E+06,
2460637.500000000, A.D. 2024-Nov-23 00:00:00.0000, 3.614660388391868E+08, -3.123351057465316E+08, -6.415626612733111E+06,
2460644.500000000, A.D. 2024-Nov-30 00:00:00.0000, 3.689880058335506E+08, -3.043193629920514E+08, -7.136799185410604E+06,
2460651.500000000, A.D. 2024-Dec-07 00:00:00.0000, 3.763462933433346E+08, -2.961686965450057E+08, -7.854805704310536E+06,
2460658.500000000, A.D. 2024-Dec-14 00:00:00.0000, 3.835382964985699E+08, -2.878872403293487E+08, -8.569341739255786E+06,
2460665.500000000, A.D. 2024-Dec-21 00:00:00.0000, 3.905615487311695E+08, -2.794791842506350E+08, -9.280107628192604E+06,
2460672.500000000, A.D. 2024-Dec-28 00:00:00.0000, 3.974137210666376E+08, -2.709487693219743E+08, -9.986808699241534E+06,
2460679.500000000, A.D. 2025-Jan-04 00:00:00.0000, 4.040926233230115E+08, -2.623002831474123E+08, -1.068915570865203E+07,
2460686.500000000, A.D. 2025-Jan-11 00:00:00.0000, 4.105962054007044E+08, -2.535380541215397E+08, -1.138686519120239E+07,
2460693.500000000, A.D. 2025-Jan-18 00:00:00.0000, 4.169225577525984E+08, -2.446664452825575E+08, -1.207965971332724E+07,
2460700.500000000, A.D. 2025-Jan-25 00:00:00.0000, 4.230699112851757E+08, -2.356898483109419E+08, -1.276726808949190E+07,
2460707.500000000, A.D. 2025-Feb-01 00:00:00.0000, 4.290366368886355E+08, -2.266126777205502E+08, -1.344942558115165E+07,
2460714.500000000, A.D. 2025-Feb-08 00:00:00.0000, 4.348212446639107E+08, -2.174393652383925E+08, -1.412587408165415E+07,
2460721.500000000, A.D. 2025-Feb-15 00:00:00.0000, 4.404223828857294E+08, -2.081743544081352E+08, -1.479636229110155E+07,
$$EOE